{"type": "FeatureCollection", "features": [ {"type": "Feature", "properties": {"norad_id": 43010, "name": "FENGYUN 3D", "group": "weather", "lat": 77.76855070960492, "lon": -92.40771135508973, "alt_km": 819.1728246888551, "timestamp": "2025-12-14T03:55:52.436683+00:00", "meta": {"OBJECT_NAME": "FENGYUN 3D", "OBJECT_ID": "2017-072A", "EPOCH": "2025-12-13T07:15:01.351008", "MEAN_MOTION": 14.19684981, "ECCENTRICITY": 9.734e-05, "INCLINATION": 98.9893, "RA_OF_ASC_NODE": 313.6207, "ARG_OF_PERICENTER": 180.5175, "MEAN_ANOMALY": 179.5999, "EPHEMERIS_TYPE": 0, "CLASSIFICATION_TYPE": "U", "NORAD_CAT_ID": 43010, "ELEMENT_SET_NO": 999, "REV_AT_EPOCH": 41861, "BSTAR": 0.00014905973, "MEAN_MOTION_DOT": 2.69e-06, "MEAN_MOTION_DDOT": 0}, "tle": {"line1": "1 43010U 17072A   25347.30209897  .00000269  00000+0  14906-3 0  9993", "line2": "2 43010  98.9893 313.6207 0000973 180.5175 179.5999 14.19684981418614"}}, "geometry": {"type": "Point", "coordinates": [-92.40771135508973, 77.76855070960492]}}, {"type": "Feature", "properties": {"norad_id": 43013, "name": "NOAA 20 (JPSS-1)", "group": "weather", "lat": -52.39739849962138, "lon": 92.89616536777126, "alt_km": 835.2167329694821, "timestamp": "2025-12-14T03:55:52.436695+00:00", "meta": {"OBJECT_NAME": "NOAA 20 (JPSS-1)", "OBJECT_ID": "2017-073A", "EPOCH": "2025-12-13T06:32:10.398048", "MEAN_MOTION": 14.19525992, "ECCENTRICITY": 0.00021559, "INCLINATION": 98.7599, "RA_OF_ASC_NODE": 283.5633, "ARG_OF_PERICENTER": 86.4672, "MEAN_ANOMALY": 273.675, "EPHEMERIS_TYPE": 0, "CLASSIFICATION_TYPE": "U", "NORAD_CAT_ID": 43013, "ELEMENT_SET_NO": 999, "REV_AT_EPOCH": 41809, "BSTAR": 9.5420532e-05, "MEAN_MOTION_DOT": 1.57e-06, "MEAN_MOTION_DDOT": 0}, "tle": {"line1": "1 43013U 17073A   25347.27234257  .00000157  00000+0  95421-4 0  9999", "line2": "2 43013  98.7599 283.5633 0002155  86.4672 273.6750 14.19525992418095"}}, "geometry": {"type": "Point", "coordinates": [92.89616536777126, -52.39739849962138]}}, {"type": "Feature", "properties": {"norad_id": 43226, "name": "GOES 17", "group": "weather", "lat": -0.2549566498708536, "lon": 52.579702897045806, "alt_km": 35795.954673502594, "timestamp": "2025-12-14T03:55:52.436707+00:00", "meta": {"OBJECT_NAME": "GOES 17", "OBJECT_ID": "2018-022A", "EPOCH": "2025-12-13T03:40:38.538048", "MEAN_MOTION": 1.00271779, "ECCENTRICITY": 0.00032553, "INCLINATION": 0.4611, "RA_OF_ASC_NODE": 89.1069, "ARG_OF_PERICENTER": 188.3307, "MEAN_ANOMALY": 130.3195, "EPHEMERIS_TYPE": 0, "CLASSIFICATION_TYPE": "U", "NORAD_CAT_ID": 43226, "ELEMENT_SET_NO": 999, "REV_AT_EPOCH": 2855, "BSTAR": 0, "MEAN_MOTION_DOT": -1.69e-06, "MEAN_MOTION_DDOT": 0}, "tle": {"line1": "1 43226U 18022A   25347.15322382 -.00000169  00000+0  00000+0 0  9992", "line2": "2 43226   0.4611  89.1069 0003255 188.3307 130.3195  1.00271779 28555"}}, "geometry": {"type": "Point", "coordinates": [52.579702897045806, -0.2549566498708536]}}, {"type": "Feature", "properties": {"norad_id": 43491, "name": "FENGYUN 2H", "group": "weather", "lat": 1.6206803728958465, "lon": -138.5808600224268, "alt_km": 35775.493207571155, "timestamp": "2025-12-14T03:55:52.436727+00:00", "meta": {"OBJECT_NAME": "FENGYUN 2H", "OBJECT_ID": "2018-050A", "EPOCH": "2025-12-13T01:50:30.989184", "MEAN_MOTION": 1.00271221, "ECCENTRICITY": 0.00027996, "INCLINATION": 2.5521, "RA_OF_ASC_NODE": 81.3266, "ARG_OF_PERICENTER": 166.9203, "MEAN_ANOMALY": 300.7552, "EPHEMERIS_TYPE": 0, "CLASSIFICATION_TYPE": "U", "NORAD_CAT_ID": 43491, "ELEMENT_SET_NO": 999, "REV_AT_EPOCH": 2757, "BSTAR": 0, "MEAN_MOTION_DOT": -1.17e-06, "MEAN_MOTION_DDOT": 0}, "tle": {"line1": "1 43491U 18050A   25347.07674756 -.00000117  00000+0  00000+0 0  9996", "line2": "2 43491   2.5521  81.3266 0002799 166.9203 300.7552  1.00271221 27577"}}, "geometry": {"type": "Point", "coordinates": [-138.5808600224268, 1.6206803728958465]}}, {"type": "Feature", "properties": {"norad_id": 43689, "name": "METOP-C", "group": "weather", "lat": 23.82788910172626, "lon": 42.03734748555781, "alt_km": 818.873483763161, "timestamp": "2025-12-14T03:55:52.436739+00:00", "meta": {"OBJECT_NAME": "METOP-C", "OBJECT_ID": "2018-087A", "EPOCH": "2025-12-13T07:32:46.274208", "MEAN_MOTION": 14.21484914, "ECCENTRICITY": 0.00012155, "INCLINATION": 98.6931, "RA_OF_ASC_NODE": 45.0754, "ARG_OF_PERICENTER": 38.4614, "MEAN_ANOMALY": 321.6649, "EPHEMERIS_TYPE": 0, "CLASSIFICATION_TYPE": "U", "NORAD_CAT_ID": 43689, "ELEMENT_SET_NO": 999, "REV_AT_EPOCH": 36842, "BSTAR": 0.00014486376, "MEAN_MOTION_DOT": 2.73e-06, "MEAN_MOTION_DDOT": 0}, "tle": {"line1": "1 43689U 18087A   25347.31442447  .00000273  00000+0  14486-3 0  9991", "line2": "2 43689  98.6931  45.0754 0001215  38.4614 321.6649 14.21484914368420"}}, "geometry": {"type": "Point", "coordinates": [42.03734748555781, 23.82788910172626]}}, {"type": "Feature", "properties": {"norad_id": 43823, "name": "GEO-KOMPSAT-2A", "group": "weather", "lat": 0.007729349008457088, "lon": -89.67656807613974, "alt_km": 35787.201314765145, "timestamp": "2025-12-14T03:55:52.436751+00:00", "meta": {"OBJECT_NAME": "GEO-KOMPSAT-2A", "OBJECT_ID": "2018-100A", "EPOCH": "2025-12-13T05:29:54.972672", "MEAN_MOTION": 1.00273632, "ECCENTRICITY": 4.313e-05, "INCLINATION": 0.0442, "RA_OF_ASC_NODE": 144.0732, "ARG_OF_PERICENTER": 340.6909, "MEAN_ANOMALY": 168.1491, "EPHEMERIS_TYPE": 0, "CLASSIFICATION_TYPE": "U", "NORAD_CAT_ID": 43823, "ELEMENT_SET_NO": 999, "REV_AT_EPOCH": 2576, "BSTAR": 0, "MEAN_MOTION_DOT": -3.3e-06, "MEAN_MOTION_DDOT": 0}, "tle": {"line1": "1 43823U 18100A   25347.22910848 -.00000330  00000+0  00000+0 0  9990", "line2": "2 43823   0.0442 144.0732 0000431 340.6909 168.1491  1.00273632 25766"}}, "geometry": {"type": "Point", "coordinates": [-89.67656807613974, 0.007729349008457088]}}, {"type": "Feature", "properties": {"norad_id": 44387, "name": "METEOR-M2 2", "group": "weather", "lat": 65.67575400656419, "lon": 168.18627490853598, "alt_km": 803.6534463899379, "timestamp": "2025-12-14T03:55:52.436762+00:00", "meta": {"OBJECT_NAME": "METEOR-M2 2", "OBJECT_ID": "2019-038A", "EPOCH": "2025-12-13T07:10:19.483968", "MEAN_MOTION": 14.2429178, "ECCENTRICITY": 0.00012637, "INCLINATION": 98.8974, "RA_OF_ASC_NODE": 327.0344, "ARG_OF_PERICENTER": 146.3208, "MEAN_ANOMALY": 213.8051, "EPHEMERIS_TYPE": 0, "CLASSIFICATION_TYPE": "U", "NORAD_CAT_ID": 44387, "ELEMENT_SET_NO": 999, "REV_AT_EPOCH": 33483, "BSTAR": 0.00012961232, "MEAN_MOTION_DOT": 2.53e-06, "MEAN_MOTION_DDOT": 0}, "tle": {"line1": "1 44387U 19038A   25347.29883662  .00000253  00000+0  12961-3 0  9993", "line2": "2 44387  98.8974 327.0344 0001263 146.3208 213.8051 14.24291780334831"}}, "geometry": {"type": "Point", "coordinates": [168.18627490853598, 65.67575400656419]}}, {"type": "Feature", "properties": {"norad_id": 47719, "name": "ARKTIKA-M 1", "group": "weather", "lat": 52.067271198193225, "lon": 124.258469925868, "alt_km": 29308.17587106612, "timestamp": "2025-12-14T03:55:52.436776+00:00", "meta": {"OBJECT_NAME": "ARKTIKA-M 1", "OBJECT_ID": "2021-016A", "EPOCH": "2025-12-09T14:03:23.859648", "MEAN_MOTION": 2.00631311, "ECCENTRICITY": 0.7202538, "INCLINATION": 63.1769, "RA_OF_ASC_NODE": 84.4506, "ARG_OF_PERICENTER": 269.1116, "MEAN_ANOMALY": 15.6235, "EPHEMERIS_TYPE": 0, "CLASSIFICATION_TYPE": "U", "NORAD_CAT_ID": 47719, "ELEMENT_SET_NO": 999, "REV_AT_EPOCH": 3498, "BSTAR": 0, "MEAN_MOTION_DOT": -6.1e-07, "MEAN_MOTION_DDOT": 0}, "tle": {"line1": "1 47719U 21016A   25343.58569282 -.00000061  00000+0  00000+0 0  9996", "line2": "2 47719  63.1769  84.4506 7202538 269.1116  15.6235  2.00631311 34985"}}, "geometry": {"type": "Point", "coordinates": [124.258469925868, 52.067271198193225]}}, {"type": "Feature", "properties": {"norad_id": 49008, "name": "FENGYUN 3E", "group": "weather", "lat": 48.537588677258505, "lon": -21.368351776344102, "alt_km": 821.6789777142103, "timestamp": "2025-12-14T03:55:52.436792+00:00", "meta": {"OBJECT_NAME": "FENGYUN 3E", "OBJECT_ID": "2021-062A", "EPOCH": "2025-12-13T07:24:17.874144", "MEAN_MOTION": 14.19879532, "ECCENTRICITY": 5.418e-05, "INCLINATION": 98.7481, "RA_OF_ASC_NODE": 347.8228, "ARG_OF_PERICENTER": 265.2328, "MEAN_ANOMALY": 94.8786, "EPHEMERIS_TYPE": 0, "CLASSIFICATION_TYPE": "U", "NORAD_CAT_ID": 49008, "ELEMENT_SET_NO": 999, "REV_AT_EPOCH": 23020, "BSTAR": -2.0478335e-05, "MEAN_MOTION_DOT": -8.7e-07, "MEAN_MOTION_DDOT": 0}, "tle": {"line1": "1 49008U 21062A   25347.30854021 -.00000087  00000+0 -20478-4 0  9997", "line2": "2 49008  98.7481 347.8228 0000541 265.2328  94.8786 14.19879532230200"}}, "geometry": {"type": "Point", "coordinates": [-21.368351776344102, 48.537588677258505]}}, {"type": "Feature", "properties": {"norad_id": 51850, "name": "GOES 18", "group": "weather", "lat": 0.0031858125157850268, "lon": 5.045462390114206, "alt_km": 35783.692167135174, "timestamp": "2025-12-14T03:55:52.436804+00:00", "meta": {"OBJECT_NAME": "GOES 18", "OBJECT_ID": "2022-021A", "EPOCH": "2025-12-13T05:26:51.632736", "MEAN_MOTION": 1.00272141, "ECCENTRICITY": 6.482e-05, "INCLINATION": 0.0012, "RA_OF_ASC_NODE": 21.0089, "ARG_OF_PERICENTER": 307.8801, "MEAN_ANOMALY": 57.9823, "EPHEMERIS_TYPE": 0, "CLASSIFICATION_TYPE": "U", "NORAD_CAT_ID": 51850, "ELEMENT_SET_NO": 999, "REV_AT_EPOCH": 472, "BSTAR": 0, "MEAN_MOTION_DOT": 0, "MEAN_MOTION_DDOT": 0}, "tle": {"line1": "1 51850U 22021A   25347.22698649  .00000000  00000+0  00000+0 0  9991", "line2": "2 51850   0.0012  21.0089 0000648 307.8801  57.9823  1.00272141  4724"}}, "geometry": {"type": "Point", "coordinates": [5.045462390114206, 0.0031858125157850268]}}]}